ORBCOMM FM06 [+]        
1 25118U 97084G   24100.82156916  .00001866  00000+0  60083-3 0  9990
2 25118  45.0147 283.3934 0002427 207.9254 167.0339 14.42473686378873
ORBCOMM FM03 [-]        
1 25158U 98007B   24100.85456884  .00001061  00000+0  43783-3 0  9995
2 25158 107.9769 326.9852 0048977 285.1232  74.4492 14.32016641361957
ORBCOMM FM04 [+]        
1 25159U 98007C   24100.91856874  .00000987  00000+0  40976-3 0  9993
2 25159 107.9749 330.0330 0044520 282.9201  76.6968 14.32273502362138
ORBCOMM FM17 [-]        
1 25413U 98046A   24100.81824619  .00000857  00000+0  36127-3 0  9999
2 25413  44.9937 139.5748 0003615 235.2528 124.7978 14.32990716340964
ORBCOMM FM18 [-]        
1 25414U 98046B   24100.87123069  .00001532  00000+0  57394-3 0  9997
2 25414  44.9945  67.0633 0005428 275.8467  84.1762 14.35699929342088
ORBCOMM FM19 [+]        
1 25415U 98046C   24100.90882799  .00001555  00000+0  58401-3 0  9999
2 25415  44.9953  68.2566 0004175 273.8149 114.1301 14.35534438342085
